STARLINK-35668          
1 66401U 25257X   25334.83336806  .00113766  00000+0  20294-2 0  9994
2 66401  53.1595 320.7024 0001566  94.8690 301.6588 15.49231015  4588
STARLINK-35644          
1 66402U 25257Y   25334.83336806  .00111111  00000+0  19829-2 0  9999
2 66402  53.1594 320.7105 0001594  95.7972 296.8972 15.49232137  4580
STARLINK-35602          
1 66403U 25257Z   25334.83336806 -.00009817  00000+0 -16870-3 0  9995
2 66403  53.1595 320.6987 0001646  96.8469 301.5756 15.49300991  4588
STARLINK-35691          
1 66404U 25257AA  25334.83336806 -.00011971  00000+0 -20755-3 0  9997
2 66404  53.1595 320.6943 0001554  97.6486 302.6924 15.49301822  4580
STARLINK-35683          
1 66405U 25257AB  25334.83336806  .00110839  00000+0  19781-2 0  9995
2 66405  53.1595 320.6897 0001543  95.2829 306.9965 15.49231933  4422
STARLINK-34840          
1 66406U 25257AC  25334.58335648  .00075586  00000+0  13565-2 0  9994
2 66406  53.1595 321.8750 0001623  84.1868   8.5888 15.49256631  4480
STARLINK-35686          
1 66407U 25257AD  25334.83336806  .00111287  00000+0  19858-2 0  9990
2 66407  53.1594 320.6859 0001644  92.7780 311.4132 15.49234308  4584
STARLINK-35679          
1 66408U 25257AE  25334.83336806  .00111451  00000+0  19888-2 0  9997
2 66408  53.1594 320.6832 0001470  94.9306 311.1807 15.49232734  4588
