{
  "type": "FeatureCollection",
  "features": [
    {
      "type": "Feature",
      "properties": {
        "norad_id": 66401,
        "name": "STARLINK-35668",
        "group": "last-30-days",
        "lat": NaN,
        "lon": NaN,
        "alt_km": NaN,
        "timestamp": "2025-12-01T02:46:51.393882+00:00",
        "meta": {
          "OBJECT_NAME": "STARLINK-35668",
          "OBJECT_ID": "2025-257X",
          "EPOCH": "2025-11-30T20:00:03.000384",
          "MEAN_MOTION": 15.49231015,
          "ECCENTRICITY": 0.0001566,
          "INCLINATION": 53.1595,
          "RA_OF_ASC_NODE": 320.7024,
          "ARG_OF_PERICENTER": 94.869,
          "MEAN_ANOMALY": 301.6588,
          "EPHEMERIS_TYPE": 0,
          "CLASSIFICATION_TYPE": "U",
          "NORAD_CAT_ID": 66401,
          "ELEMENT_SET_NO": 999,
          "REV_AT_EPOCH": 458,
          "BSTAR": 0.0020294,
          "MEAN_MOTION_DOT": 0.00113766,
          "MEAN_MOTION_DDOT": 0
        }
      },
      "geometry": {
        "type": "Point",
        "coordinates": [
          NaN,
          NaN
        ]
      }
    },
    {
      "type": "Feature",
      "properties": {
        "norad_id": 66402,
        "name": "STARLINK-35644",
        "group": "last-30-days",
        "lat": NaN,
        "lon": NaN,
        "alt_km": NaN,
        "timestamp": "2025-12-01T02:46:51.393898+00:00",
        "meta": {
          "OBJECT_NAME": "STARLINK-35644",
          "OBJECT_ID": "2025-257Y",
          "EPOCH": "2025-11-30T20:00:03.000384",
          "MEAN_MOTION": 15.49232137,
          "ECCENTRICITY": 0.0001594,
          "INCLINATION": 53.1594,
          "RA_OF_ASC_NODE": 320.7105,
          "ARG_OF_PERICENTER": 95.7972,
          "MEAN_ANOMALY": 296.8972,
          "EPHEMERIS_TYPE": 0,
          "CLASSIFICATION_TYPE": "U",
          "NORAD_CAT_ID": 66402,
          "ELEMENT_SET_NO": 999,
          "REV_AT_EPOCH": 458,
          "BSTAR": 0.0019829,
          "MEAN_MOTION_DOT": 0.00111111,
          "MEAN_MOTION_DDOT": 0
        }
      },
      "geometry": {
        "type": "Point",
        "coordinates": [
          NaN,
          NaN
        ]
      }
    },
    {
      "type": "Feature",
      "properties": {
        "norad_id": 66403,
        "name": "STARLINK-35602",
        "group": "last-30-days",
        "lat": NaN,
        "lon": NaN,
        "alt_km": NaN,
        "timestamp": "2025-12-01T02:46:51.393914+00:00",
        "meta": {
          "OBJECT_NAME": "STARLINK-35602",
          "OBJECT_ID": "2025-257Z",
          "EPOCH": "2025-11-30T20:00:03.000384",
          "MEAN_MOTION": 15.49300991,
          "ECCENTRICITY": 0.0001646,
          "INCLINATION": 53.1595,
          "RA_OF_ASC_NODE": 320.6987,
          "ARG_OF_PERICENTER": 96.8469,
          "MEAN_ANOMALY": 301.5756,
          "EPHEMERIS_TYPE": 0,
          "CLASSIFICATION_TYPE": "U",
          "NORAD_CAT_ID": 66403,
          "ELEMENT_SET_NO": 999,
          "REV_AT_EPOCH": 458,
          "BSTAR": -0.0001687,
          "MEAN_MOTION_DOT": -9.817e-05,
          "MEAN_MOTION_DDOT": 0
        }
      },
      "geometry": {
        "type": "Point",
        "coordinates": [
          NaN,
          NaN
        ]
      }
    },
    {
      "type": "Feature",
      "properties": {
        "norad_id": 66404,
        "name": "STARLINK-35691",
        "group": "last-30-days",
        "lat": NaN,
        "lon": NaN,
        "alt_km": NaN,
        "timestamp": "2025-12-01T02:46:51.393931+00:00",
        "meta": {
          "OBJECT_NAME": "STARLINK-35691",
          "OBJECT_ID": "2025-257AA",
          "EPOCH": "2025-11-30T20:00:03.000384",
          "MEAN_MOTION": 15.49301822,
          "ECCENTRICITY": 0.0001554,
          "INCLINATION": 53.1595,
          "RA_OF_ASC_NODE": 320.6943,
          "ARG_OF_PERICENTER": 97.6486,
          "MEAN_ANOMALY": 302.6924,
          "EPHEMERIS_TYPE": 0,
          "CLASSIFICATION_TYPE": "U",
          "NORAD_CAT_ID": 66404,
          "ELEMENT_SET_NO": 999,
          "REV_AT_EPOCH": 458,
          "BSTAR": -0.00020755,
          "MEAN_MOTION_DOT": -0.00011971,
          "MEAN_MOTION_DDOT": 0
        }
      },
      "geometry": {
        "type": "Point",
        "coordinates": [
          NaN,
          NaN
        ]
      }
    },
    {
      "type": "Feature",
      "properties": {
        "norad_id": 66405,
        "name": "STARLINK-35683",
        "group": "last-30-days",
        "lat": NaN,
        "lon": NaN,
        "alt_km": NaN,
        "timestamp": "2025-12-01T02:46:51.393947+00:00",
        "meta": {
          "OBJECT_NAME": "STARLINK-35683",
          "OBJECT_ID": "2025-257AB",
          "EPOCH": "2025-11-30T20:00:03.000384",
          "MEAN_MOTION": 15.49231933,
          "ECCENTRICITY": 0.0001543,
          "INCLINATION": 53.1595,
          "RA_OF_ASC_NODE": 320.6897,
          "ARG_OF_PERICENTER": 95.2829,
          "MEAN_ANOMALY": 306.9965,
          "EPHEMERIS_TYPE": 0,
          "CLASSIFICATION_TYPE": "U",
          "NORAD_CAT_ID": 66405,
          "ELEMENT_SET_NO": 999,
          "REV_AT_EPOCH": 442,
          "BSTAR": 0.0019781,
          "MEAN_MOTION_DOT": 0.00110839,
          "MEAN_MOTION_DDOT": 0
        }
      },
      "geometry": {
        "type": "Point",
        "coordinates": [
          NaN,
          NaN
        ]
      }
    },
    {
      "type": "Feature",
      "properties": {
        "norad_id": 66406,
        "name": "STARLINK-34840",
        "group": "last-30-days",
        "lat": NaN,
        "lon": NaN,
        "alt_km": NaN,
        "timestamp": "2025-12-01T02:46:51.393973+00:00",
        "meta": {
          "OBJECT_NAME": "STARLINK-34840",
          "OBJECT_ID": "2025-257AC",
          "EPOCH": "2025-11-30T14:00:01.999872",
          "MEAN_MOTION": 15.49256631,
          "ECCENTRICITY": 0.00016239,
          "INCLINATION": 53.1595,
          "RA_OF_ASC_NODE": 321.875,
          "ARG_OF_PERICENTER": 84.1868,
          "MEAN_ANOMALY": 8.5888,
          "EPHEMERIS_TYPE": 0,
          "CLASSIFICATION_TYPE": "U",
          "NORAD_CAT_ID": 66406,
          "ELEMENT_SET_NO": 999,
          "REV_AT_EPOCH": 448,
          "BSTAR": 0.001356455,
          "MEAN_MOTION_DOT": 0.00075586,
          "MEAN_MOTION_DDOT": 0
        }
      },
      "geometry": {
        "type": "Point",
        "coordinates": [
          NaN,
          NaN
        ]
      }
    },
    {
      "type": "Feature",
      "properties": {
        "norad_id": 66407,
        "name": "STARLINK-35686",
        "group": "last-30-days",
        "lat": NaN,
        "lon": NaN,
        "alt_km": NaN,
        "timestamp": "2025-12-01T02:46:51.393993+00:00",
        "meta": {
          "OBJECT_NAME": "STARLINK-35686",
          "OBJECT_ID": "2025-257AD",
          "EPOCH": "2025-11-30T20:00:03.000384",
          "MEAN_MOTION": 15.49234308,
          "ECCENTRICITY": 0.0001644,
          "INCLINATION": 53.1594,
          "RA_OF_ASC_NODE": 320.6859,
          "ARG_OF_PERICENTER": 92.778,
          "MEAN_ANOMALY": 311.4132,
          "EPHEMERIS_TYPE": 0,
          "CLASSIFICATION_TYPE": "U",
          "NORAD_CAT_ID": 66407,
          "ELEMENT_SET_NO": 999,
          "REV_AT_EPOCH": 458,
          "BSTAR": 0.0019858,
          "MEAN_MOTION_DOT": 0.00111287,
          "MEAN_MOTION_DDOT": 0
        }
      },
      "geometry": {
        "type": "Point",
        "coordinates": [
          NaN,
          NaN
        ]
      }
    },
    {
      "type": "Feature",
      "properties": {
        "norad_id": 66408,
        "name": "STARLINK-35679",
        "group": "last-30-days",
        "lat": NaN,
        "lon": NaN,
        "alt_km": NaN,
        "timestamp": "2025-12-01T02:46:51.394010+00:00",
        "meta": {
          "OBJECT_NAME": "STARLINK-35679",
          "OBJECT_ID": "2025-257AE",
          "EPOCH": "2025-11-30T20:00:03.000384",
          "MEAN_MOTION": 15.49232734,
          "ECCENTRICITY": 0.000147,
          "INCLINATION": 53.1594,
          "RA_OF_ASC_NODE": 320.6832,
          "ARG_OF_PERICENTER": 94.9306,
          "MEAN_ANOMALY": 311.1807,
          "EPHEMERIS_TYPE": 0,
          "CLASSIFICATION_TYPE": "U",
          "NORAD_CAT_ID": 66408,
          "ELEMENT_SET_NO": 999,
          "REV_AT_EPOCH": 458,
          "BSTAR": 0.0019888,
          "MEAN_MOTION_DOT": 0.00111451,
          "MEAN_MOTION_DDOT": 0
        }
      },
      "geometry": {
        "type": "Point",
        "coordinates": [
          NaN,
          NaN
        ]
      }
    }
  ]
}